{"fetched_at":"2026-07-17T06:37:54.961Z","source":"https://celestrak.org/NORAD/elements/gp.php?GROUP=qianfan&FORMAT=JSON","constellation":"qianfan","records":[{"OBJECT_NAME":"QIANFAN-49","OBJECT_ID":"2024-232P","EPOCH":"2026-07-16T21:10:54.970752","CLASSIFICATION_TYPE":"U","MEAN_MOTION":13.51014193,"ECCENTRICITY":0.0012247,"INCLINATION":89.0074,"RA_OF_ASC_NODE":19.5208,"ARG_OF_PERICENTER":294.0699,"MEAN_ANOMALY":65.917,"EPHEMERIS_TYPE":0,"NORAD_CAT_ID":62250,"ELEMENT_SET_NO":999,"REV_AT_EPOCH":9702,"BSTAR":0.000017836,"MEAN_MOTION_DOT":2.3e-7,"MEAN_MOTION_DDOT":0},{"OBJECT_NAME":"QIANFAN-50","OBJECT_ID":"2024-232Q","EPOCH":"2026-07-16T19:59:58.003872","CLASSIFICATION_TYPE":"U","MEAN_MOTION":13.51010959,"ECCENTRICITY":0.0013925,"INCLINATION":89.0079,"RA_OF_ASC_NODE":19.5457,"ARG_OF_PERICENTER":295.3263,"MEAN_ANOMALY":64.6445,"EPHEMERIS_TYPE":0,"NORAD_CAT_ID":62251,"ELEMENT_SET_NO":999,"REV_AT_EPOCH":9704,"BSTAR":0.000038357,"MEAN_MOTION_DOT":3.7e-7,"MEAN_MOTION_DDOT":0},{"OBJECT_NAME":"QIANFAN-51","OBJECT_ID":"2024-232R","EPOCH":"2026-07-16T19:36:19.759104","CLASSIFICATION_TYPE":"U","MEAN_MOTION":13.51022209,"ECCENTRICITY":0.0011466,"INCLINATION":89.0073,"RA_OF_ASC_NODE":19.5279,"ARG_OF_PERICENTER":300.6444,"MEAN_ANOMALY":59.3576,"EPHEMERIS_TYPE":0,"NORAD_CAT_ID":62252,"ELEMENT_SET_NO":999,"REV_AT_EPOCH":9703,"BSTAR":-0.0000067838,"MEAN_MOTION_DOT":7e-8,"MEAN_MOTION_DDOT":0},{"OBJECT_NAME":"QIANFAN-52","OBJECT_ID":"2024-232S","EPOCH":"2026-07-16T20:17:36.511008","CLASSIFICATION_TYPE":"U","MEAN_MOTION":13.51013916,"ECCENTRICITY":0.0013362,"INCLINATION":89.0069,"RA_OF_ASC_NODE":19.3902,"ARG_OF_PERICENTER":290.7688,"MEAN_ANOMALY":69.2031,"EPHEMERIS_TYPE":0,"NORAD_CAT_ID":62253,"ELEMENT_SET_NO":999,"REV_AT_EPOCH":9712,"BSTAR":0.00003667,"MEAN_MOTION_DOT":3.6e-7,"MEAN_MOTION_DDOT":0},{"OBJECT_NAME":"QIANFAN-53","OBJECT_ID":"2024-232T","EPOCH":"2026-07-16T19:48:04.727808","CLASSIFICATION_TYPE":"U","MEAN_MOTION":13.51009881,"ECCENTRICITY":0.001226,"INCLINATION":89.0077,"RA_OF_ASC_NODE":19.5131,"ARG_OF_PERICENTER":292.422,"MEAN_ANOMALY":67.5632,"EPHEMERIS_TYPE":0,"NORAD_CAT_ID":62254,"ELEMENT_SET_NO":999,"REV_AT_EPOCH":9708,"BSTAR":0.000018215,"MEAN_MOTION_DOT":2.4e-7,"MEAN_MOTION_DDOT":0},{"OBJECT_NAME":"QIANFAN-54","OBJECT_ID":"2024-232U","EPOCH":"2026-07-16T20:47:15.364320","CLASSIFICATION_TYPE":"U","MEAN_MOTION":13.51013704,"ECCENTRICITY":0.0002141,"INCLINATION":89.0068,"RA_OF_ASC_NODE":19.1683,"ARG_OF_PERICENTER":30.3016,"MEAN_ANOMALY":329.8258,"EPHEMERIS_TYPE":0,"NORAD_CAT_ID":62255,"ELEMENT_SET_NO":999,"REV_AT_EPOCH":12859,"BSTAR":0.000014582,"MEAN_MOTION_DOT":2.1e-7,"MEAN_MOTION_DDOT":0},{"OBJECT_NAME":"QIANFAN-55","OBJECT_ID":"2025-016A","EPOCH":"2026-07-16T19:38:17.566368","CLASSIFICATION_TYPE":"U","MEAN_MOTION":13.51011256,"ECCENTRICITY":0.0019403,"INCLINATION":88.9714,"RA_OF_ASC_NODE":80.8039,"ARG_OF_PERICENTER":83.4305,"MEAN_ANOMALY":276.9054,"EPHEMERIS_TYPE":0,"NORAD_CAT_ID":62785,"ELEMENT_SET_NO":999,"REV_AT_EPOCH":7636,"BSTAR":0.00012523,"MEAN_MOTION_DOT":9.3e-7,"MEAN_MOTION_DDOT":0},{"OBJECT_NAME":"QIANFAN-56","OBJECT_ID":"2025-016B","EPOCH":"2026-07-16T20:02:02.474304","CLASSIFICATION_TYPE":"U","MEAN_MOTION":13.51009867,"ECCENTRICITY":0.0018033,"INCLINATION":88.9688,"RA_OF_ASC_NODE":80.5809,"ARG_OF_PERICENTER":85.4527,"MEAN_ANOMALY":274.8684,"EPHEMERIS_TYPE":0,"NORAD_CAT_ID":62786,"ELEMENT_SET_NO":999,"REV_AT_EPOCH":7641,"BSTAR":0.00011674,"MEAN_MOTION_DOT":8.8e-7,"MEAN_MOTION_DDOT":0},{"OBJECT_NAME":"QIANFAN-57","OBJECT_ID":"2025-016C","EPOCH":"2026-07-16T20:49:20.593344","CLASSIFICATION_TYPE":"U","MEAN_MOTION":13.51009894,"ECCENTRICITY":0.000131,"INCLINATION":88.9719,"RA_OF_ASC_NODE":80.7983,"ARG_OF_PERICENTER":82.8958,"MEAN_ANOMALY":277.2342,"EPHEMERIS_TYPE":0,"NORAD_CAT_ID":62787,"ELEMENT_SET_NO":999,"REV_AT_EPOCH":7638,"BSTAR":0.00011853,"MEAN_MOTION_DOT":8.9e-7,"MEAN_MOTION_DDOT":0},{"OBJECT_NAME":"QIANFAN-58","OBJECT_ID":"2025-016D","EPOCH":"2026-07-16T20:07:41.644416","CLASSIFICATION_TYPE":"U","MEAN_MOTION":13.51014395,"ECCENTRICITY":0.0015962,"INCLINATION":88.9689,"RA_OF_ASC_NODE":80.567,"ARG_OF_PERICENTER":78.71,"MEAN_ANOMALY":281.5844,"EPHEMERIS_TYPE":0,"NORAD_CAT_ID":62788,"ELEMENT_SET_NO":999,"REV_AT_EPOCH":7642,"BSTAR":0.00011001,"MEAN_MOTION_DOT":8.3e-7,"MEAN_MOTION_DDOT":0},{"OBJECT_NAME":"QIANFAN-59","OBJECT_ID":"2025-016E","EPOCH":"2026-07-16T20:43:16.982400","CLASSIFICATION_TYPE":"U","MEAN_MOTION":13.51018648,"ECCENTRICITY":0.0016328,"INCLINATION":88.9712,"RA_OF_ASC_NODE":80.6892,"ARG_OF_PERICENTER":82.0014,"MEAN_ANOMALY":278.299,"EPHEMERIS_TYPE":0,"NORAD_CAT_ID":62789,"ELEMENT_SET_NO":999,"REV_AT_EPOCH":7642,"BSTAR":0.00012748,"MEAN_MOTION_DOT":9.5e-7,"MEAN_MOTION_DDOT":0},{"OBJECT_NAME":"QIANFAN-60","OBJECT_ID":"2025-016F","EPOCH":"2026-07-16T19:44:16.000224","CLASSIFICATION_TYPE":"U","MEAN_MOTION":13.51021511,"ECCENTRICITY":0.0017874,"INCLINATION":88.9693,"RA_OF_ASC_NODE":80.6237,"ARG_OF_PERICENTER":78.9395,"MEAN_ANOMALY":281.3765,"EPHEMERIS_TYPE":0,"NORAD_CAT_ID":62790,"ELEMENT_SET_NO":999,"REV_AT_EPOCH":7640,"BSTAR":0.00012922,"MEAN_MOTION_DOT":9.6e-7,"MEAN_MOTION_DDOT":0},{"OBJECT_NAME":"QIANFAN-61","OBJECT_ID":"2025-016G","EPOCH":"2026-07-16T20:31:38.635392","CLASSIFICATION_TYPE":"U","MEAN_MOTION":13.51002094,"ECCENTRICITY":0.0016851,"INCLINATION":88.976,"RA_OF_ASC_NODE":80.9297,"ARG_OF_PERICENTER":78.5256,"MEAN_ANOMALY":281.7787,"EPHEMERIS_TYPE":0,"NORAD_CAT_ID":62791,"ELEMENT_SET_NO":999,"REV_AT_EPOCH":7642,"BSTAR":0.00014224,"MEAN_MOTION_DOT":0.00000104,"MEAN_MOTION_DDOT":0},{"OBJECT_NAME":"QIANFAN-62","OBJECT_ID":"2025-016H","EPOCH":"2026-07-16T18:50:38.656032","CLASSIFICATION_TYPE":"U","MEAN_MOTION":13.51013998,"ECCENTRICITY":0.0018185,"INCLINATION":88.9707,"RA_OF_ASC_NODE":80.6891,"ARG_OF_PERICENTER":78.8702,"MEAN_ANOMALY":281.4492,"EPHEMERIS_TYPE":0,"NORAD_CAT_ID":62792,"ELEMENT_SET_NO":999,"REV_AT_EPOCH":7640,"BSTAR":0.000090276,"MEAN_MOTION_DOT":7.1e-7,"MEAN_MOTION_DDOT":0},{"OBJECT_NAME":"QIANFAN-63","OBJECT_ID":"2025-016J","EPOCH":"2026-07-16T19:26:18.911040","CLASSIFICATION_TYPE":"U","MEAN_MOTION":13.51017261,"ECCENTRICITY":0.0018232,"INCLINATION":88.9714,"RA_OF_ASC_NODE":80.6527,"ARG_OF_PERICENTER":83.5581,"MEAN_ANOMALY":276.7646,"EPHEMERIS_TYPE":0,"NORAD_CAT_ID":62793,"ELEMENT_SET_NO":999,"REV_AT_EPOCH":7644,"BSTAR":0.00012757,"MEAN_MOTION_DOT":9.5e-7,"MEAN_MOTION_DDOT":0},{"OBJECT_NAME":"QIANFAN-64","OBJECT_ID":"2025-016K","EPOCH":"2026-07-16T20:25:38.822592","CLASSIFICATION_TYPE":"U","MEAN_MOTION":13.5101372,"ECCENTRICITY":0.0016176,"INCLINATION":88.9701,"RA_OF_ASC_NODE":80.5935,"ARG_OF_PERICENTER":77.2087,"MEAN_ANOMALY":283.087,"EPHEMERIS_TYPE":0,"NORAD_CAT_ID":62794,"ELEMENT_SET_NO":999,"REV_AT_EPOCH":7644,"BSTAR":0.00013067,"MEAN_MOTION_DOT":9.7e-7,"MEAN_MOTION_DDOT":0}]}
