QIANFAN-49              
1 62250U 24232P   26197.88258068  .00000023  00000+0  17836-4 0  9991
2 62250  89.0074  19.5208 0012247 294.0699  65.9170 13.51014193 97029
QIANFAN-50              
1 62251U 24232Q   26197.83331023  .00000037  00000+0  38357-4 0  9996
2 62251  89.0079  19.5457 0013925 295.3263  64.6445 13.51010959 97045
QIANFAN-51              
1 62252U 24232R   26197.81689536  .00000007  00000+0 -67838-5 0  9995
2 62252  89.0073  19.5279 0011466 300.6444  59.3576 13.51022209 97037
QIANFAN-52              
1 62253U 24232S   26197.84556147  .00000036  00000+0  36670-4 0  9990
2 62253  89.0069  19.3902 0013362 290.7688  69.2031 13.51013916 97121
QIANFAN-53              
1 62254U 24232T   26197.82505472  .00000024  00000+0  18215-4 0  9996
2 62254  89.0077  19.5131 0012260 292.4220  67.5632 13.51009881 97083
QIANFAN-54              
1 62255U 24232U   26197.86615005  .00000021  00000+0  14582-4 0  9995
2 62255  89.0068  19.1683 0002141  30.3016 329.8258 13.51013704128599
QIANFAN-55              
1 62785U 25016A   26197.81825887  .00000093  00000+0  12523-3 0  9991
2 62785  88.9714  80.8039 0019403  83.4305 276.9054 13.51011256 76365
QIANFAN-56              
1 62786U 25016B   26197.83475086  .00000088  00000+0  11674-3 0  9996
2 62786  88.9688  80.5809 0018033  85.4527 274.8684 13.51009867 76411
QIANFAN-57              
1 62787U 25016C   26197.86759946  .00000089  00000+0  11853-3 0  9990
2 62787  88.9719  80.7983 0001310  82.8958 277.2342 13.51009894 76385
QIANFAN-58              
1 62788U 25016D   26197.83867644  .00000083  00000+0  11001-3 0  9992
2 62788  88.9689  80.5670 0015962  78.7100 281.5844 13.51014395 76426
QIANFAN-59              
1 62789U 25016E   26197.86339100  .00000095  00000+0  12748-3 0  9999
2 62789  88.9712  80.6892 0016328  82.0014 278.2990 13.51018648 76420
QIANFAN-60              
1 62790U 25016F   26197.82240741  .00000096  00000+0  12922-3 0  9994
2 62790  88.9693  80.6237 0017874  78.9395 281.3765 13.51021511 76402
QIANFAN-61              
1 62791U 25016G   26197.85530828  .00000104  00000+0  14224-3 0  9993
2 62791  88.9760  80.9297 0016851  78.5256 281.7787 13.51002094 76428
QIANFAN-62              
1 62792U 25016H   26197.78516963  .00000071  00000+0  90276-4 0  9995
2 62792  88.9707  80.6891 0018185  78.8702 281.4492 13.51013998 76401
QIANFAN-63              
1 62793U 25016J   26197.80994110  .00000095  00000+0  12757-3 0  9996
2 62793  88.9714  80.6527 0018232  83.5581 276.7646 13.51017261 76446
QIANFAN-64              
1 62794U 25016K   26197.85114378  .00000097  00000+0  13067-3 0  9999
2 62794  88.9701  80.5935 0016176  77.2087 283.0870 13.51013720 76447
